0 SL-16 DEB
1 27750U 92093JM  13283.30465233  .00001431  00000-0  72658-3 0  8121
2 27750 071.1762 150.2025 0087882 328.0455 031.6696 14.15600890618653
0 SL-16 DEB
1 27750U 92093JM  13287.26171495  .00001998  00000-0  98643-3 0  8135
2 27750 071.1603 141.9018 0107532 320.1259 039.4541 14.15626292619218
0 SL-16 DEB
1 27750U 92093JM  13289.24017511  .00001968  00000-0  97234-3 0  8146
2 27750 071.1592 137.7771 0107486 317.0215 042.2543 14.15633915619493
0 SL-16 DEB
1 27750U 92093JM  13291.21867621  .00001950  00000-0  96290-3 0  8154
2 27750 071.1590 133.6505 0107842 314.1379 045.0884 14.15641468619778
0 SL-16 DEB
1 27750U 92093JM  13293.90376669  .00001885  00000-0  93201-3 0  8166
2 27750 071.1593 128.0535 0107350 310.1062 049.0444 14.15650860620157
0 SL-16 DEB
1 27750U 92093JM  13295.17565679  .00001745  00000-0  86394-3 0  8179
2 27750 071.1587 125.4014 0107971 308.5549 050.5966 14.15654000620339
